start=new Date('2022-01-09T00:00:00.000Z').valueOf();
sats=[{"MEAN_ELEMENT_THEORY":"SGP4","OBJECT_TYPE":"PAYLOAD","INCLINATION":"53.0538","MEAN_MOTION_DDOT":"0.0000000000000","CENTER_NAME":"EARTH","DECAY_DATE":null,"TLE_LINE2":"2 45090  53.0538 233.7950 0002513  62.7555 297.3690 15.06392729107800","NORAD_CAT_ID":"45090","PERIAPSIS":"545.495","MEAN_MOTION":"15.06392729","GP_ID":"193488393","SITE":"AFETR","SEMIMAJOR_AXIS":"6925.371","TIME_SYSTEM":"UTC","TLE_LINE1":"1 45090U 20006AY  22008.88087308  .00000657  00000-0  63047-4 0  9992","BSTAR":"0.00006304700000","COUNTRY_CODE":"US","EPHEMERIS_TYPE":"0","APOAPSIS":"548.976","ELEMENT_SET_NO":"999","EPOCH":"2022-01-08T21:08:27.434112","MEAN_ANOMALY":"297.3690","REF_FRAME":"TEME","PERIOD":"95.593","RCS_SIZE":"LARGE","OBJECT_ID":"2020-006AY","ARG_OF_PERICENTER":"62.7555","OBJECT_NAME":"STARLINK-1176","FILE":"3267514","CLASSIFICATION_TYPE":"U","RA_OF_ASC_NODE":"233.7950","ECCENTRICITY":"0.00025130","LAUNCH_DATE":"2020-01-29","REV_AT_EPOCH":"10780","MEAN_MOTION_DOT":"0.00000657"},{"PERIAPSIS":"545.775","NORAD_CAT_ID":"45092","TLE_LINE2":"2 45092  53.0542 233.6200 0002103  69.2731 290.8483 15.06394218107800","CENTER_NAME":"EARTH","DECAY_DATE":null,"MEAN_ELEMENT_THEORY":"SGP4","OBJECT_TYPE":"PAYLOAD","MEAN_MOTION_DDOT":"0.0000000000000","INCLINATION":"53.0542","COUNTRY_CODE":"US","TLE_LINE1":"1 45092U 20006BA  22008.92141209  .00001004  00000-0  86308-4 0  9992","BSTAR":"0.00008630800000","TIME_SYSTEM":"UTC","GP_ID":"193488643","SITE":"AFETR","SEMIMAJOR_AXIS":"6925.366","MEAN_MOTION":"15.06394218","OBJECT_ID":"2020-006BA","ARG_OF_PERICENTER":"69.2731","PERIOD":"95.593","RCS_SIZE":"LARGE","REF_FRAME":"TEME","MEAN_ANOMALY":"290.8483","ELEMENT_SET_NO":"999","APOAPSIS":"548.688","EPHEMERIS_TYPE":"0","EPOCH":"2022-01-08T22:06:50.004576","REV_AT_EPOCH":"10780","MEAN_MOTION_DOT":"0.00001004","LAUNCH_DATE":"2020-01-29","ECCENTRICITY":"0.00021030","RA_OF_ASC_NODE":"233.6200","CLASSIFICATION_TYPE":"U","FILE":"3267514","OBJECT_NAME":"STARLINK-1137"},{"MEAN_ANOMALY":"291.5426","EPOCH":"2022-01-08T22:01:32.752416","APOAPSIS":"548.729","EPHEMERIS_TYPE":"0","ELEMENT_SET_NO":"999","ARG_OF_PERICENTER":"68.5790","OBJECT_ID":"2020-006BB","REF_FRAME":"TEME","RCS_SIZE":"LARGE","PERIOD":"95.593","RA_OF_ASC_NODE":"233.6315","ECCENTRICITY":"0.00021330","FILE":"3267514","OBJECT_NAME":"STARLINK-1142","CLASSIFICATION_TYPE":"U","LAUNCH_DATE":"2020-01-29","MEAN_MOTION_DOT":"0.00000603","REV_AT_EPOCH":"10780","DECAY_DATE":null,"CENTER_NAME":"EARTH","INCLINATION":"53.0540","MEAN_MOTION_DDOT":"0.0000000000000","OBJECT_TYPE":"PAYLOAD","MEAN_ELEMENT_THEORY":"SGP4","PERIAPSIS":"545.775","TLE_LINE2":"2 45093  53.0540 233.6315 0002133  68.5790 291.5426 15.06387533107803","NORAD_CAT_ID":"45093","SEMIMAJOR_AXIS":"6925.387","SITE":"AFETR","GP_ID":"193489395","MEAN_MOTION":"15.06387533","COUNTRY_CODE":"US","TIME_SYSTEM":"UTC","TLE_LINE1":"1 45093U 20006BB  22008.91774019  .00000603  00000-0  59434-4 0  9997","BSTAR":"0.00005943400000"},{"REF_FRAME":"TEME","PERIOD":"95.593","RCS_SIZE":"LARGE","ARG_OF_PERICENTER":"66.6061","OBJECT_ID":"2020-006BC","EPOCH":"2022-01-08T20:47:13.677792","APOAPSIS":"548.641","EPHEMERIS_TYPE":"0","ELEMENT_SET_NO":"999","MEAN_ANOMALY":"293.5138","LAUNCH_DATE":"2020-01-29","REV_AT_EPOCH":"10780","MEAN_MOTION_DOT":"-0.00001187","OBJECT_NAME":"STARLINK-1146","FILE":"3267514","CLASSIFICATION_TYPE":"U","RA_OF_ASC_NODE":"233.8570","ECCENTRICITY":"0.00019970","TLE_LINE2":"2 45094  53.0553 233.8570 0001997  66.6061 293.5138 15.06385555107804","NORAD_CAT_ID":"45094","PERIAPSIS":"545.875","INCLINATION":"53.0553","MEAN_MOTION_DDOT":"0.0000000000000","OBJECT_TYPE":"PAYLOAD","MEAN_ELEMENT_THEORY":"SGP4","DECAY_DATE":null,"CENTER_NAME":"EARTH","TIME_SYSTEM":"UTC","BSTAR":"-0.00006078700000","TLE_LINE1":"1 45094U 20006BC  22008.86613053 -.00001187  00000-0 -60787-4 0  9995","COUNTRY_CODE":"US","MEAN_MOTION":"15.06385555","SEMIMAJOR_AXIS":"6925.393","GP_ID":"193489145","SITE":"AFETR"},{"INCLINATION":"53.0546","MEAN_MOTION_DDOT":"0.0000000000000","MEAN_ELEMENT_THEORY":"SGP4","OBJECT_TYPE":"PAYLOAD","DECAY_DATE":null,"CENTER_NAME":"EARTH","NORAD_CAT_ID":"45095","TLE_LINE2":"2 45095  53.0546 233.8543 0002272  65.1106 295.0119 15.06390238107808","PERIAPSIS":"545.670","MEAN_MOTION":"15.06390238","SEMIMAJOR_AXIS":"6925.378","GP_ID":"193487893","SITE":"AFETR","BSTAR":"-0.00004863900000","TLE_LINE1":"1 45095U 20006BD  22008.86981851 -.00001006  00000-0 -48639-4 0  9992","TIME_SYSTEM":"UTC","COUNTRY_CODE":"US","EPOCH":"2022-01-08T20:52:32.319264","ELEMENT_SET_NO":"999","EPHEMERIS_TYPE":"0","APOAPSIS":"548.817","MEAN_ANOMALY":"295.0119","RCS_SIZE":"LARGE","PERIOD":"95.593","REF_FRAME":"TEME","ARG_OF_PERICENTER":"65.1106","OBJECT_ID":"2020-006BD","CLASSIFICATION_TYPE":"U","OBJECT_NAME":"STARLINK-1147","FILE":"3267514","ECCENTRICITY":"0.00022720","RA_OF_ASC_NODE":"233.8543","REV_AT_EPOCH":"10780","MEAN_MOTION_DOT":"-0.00001006","LAUNCH_DATE":"2020-01-29"},{"COUNTRY_CODE":"US","BSTAR":"-0.00006084600000","TLE_LINE1":"1 45096U 20006BE  22008.86244634 -.00001188  00000-0 -60846-4 0  9999","TIME_SYSTEM":"UTC","SEMIMAJOR_AXIS":"6925.378","GP_ID":"193488143","SITE":"AFETR","MEAN_MOTION":"15.06390249","PERIAPSIS":"545.744","NORAD_CAT_ID":"45096","TLE_LINE2":"2 45096  53.0542 233.8920 0002165  67.8606 292.2612 15.06390249107796","DECAY_DATE":null,"CENTER_NAME":"EARTH","MEAN_MOTION_DDOT":"0.0000000000000","INCLINATION":"53.0542","MEAN_ELEMENT_THEORY":"SGP4","OBJECT_TYPE":"PAYLOAD","REV_AT_EPOCH":"10779","MEAN_MOTION_DOT":"-0.00001188","LAUNCH_DATE":"2020-01-29","ECCENTRICITY":"0.00021650","RA_OF_ASC_NODE":"233.8920","CLASSIFICATION_TYPE":"U","FILE":"3267514","OBJECT_NAME":"STARLINK-1152","ARG_OF_PERICENTER":"67.8606","OBJECT_ID":"2020-006BE","PERIOD":"95.593","RCS_SIZE":"LARGE","REF_FRAME":"TEME","MEAN_ANOMALY":"292.2612","EPOCH":"2022-01-08T20:41:55.363776","ELEMENT_SET_NO":"999","EPHEMERIS_TYPE":"0","APOAPSIS":"548.743"},{"MEAN_ANOMALY":"291.6475","ELEMENT_SET_NO":"999","EPHEMERIS_TYPE":"0","APOAPSIS":"548.656","EPOCH":"2022-01-08T21:50:55.045248","OBJECT_ID":"2020-006BG","ARG_OF_PERICENTER":"68.4732","RCS_SIZE":"LARGE","PERIOD":"95.593","REF_FRAME":"TEME","ECCENTRICITY":"0.00020450","RA_OF_ASC_NODE":"233.6734","CLASSIFICATION_TYPE":"U","OBJECT_NAME":"STARLINK-1184","FILE":"3267514","MEAN_MOTION_DOT":"0.00001248","REV_AT_EPOCH":"10780","LAUNCH_DATE":"2020-01-29","CENTER_NAME":"EARTH","DECAY_DATE":null,"MEAN_ELEMENT_THEORY":"SGP4","OBJECT_TYPE":"PAYLOAD","MEAN_MOTION_DDOT":"0.0000000000000","INCLINATION":"53.0544","PERIAPSIS":"545.823","NORAD_CAT_ID":"45098","TLE_LINE2":"2 45098  53.0544 233.6734 0002045  68.4732 291.6475 15.06391576107801","GP_ID":"193488895","SITE":"AFETR","SEMIMAJOR_AXIS":"6925.374","MEAN_MOTION":"15.06391576","COUNTRY_CODE":"US","BSTAR":"0.00010267000000","TLE_LINE1":"1 45098U 20006BG  22008.91035932  .00001248  00000-0  10267-3 0  9992","TIME_SYSTEM":"UTC"},{"APOAPSIS":"548.820","EPHEMERIS_TYPE":"0","ELEMENT_SET_NO":"999","EPOCH":"2022-01-08T21:03:09.629856","MEAN_ANOMALY":"300.5575","REF_FRAME":"TEME","PERIOD":"95.593","RCS_SIZE":"LARGE","OBJECT_ID":"2020-006BH","ARG_OF_PERICENTER":"59.5640","FILE":"3267514","OBJECT_NAME":"STARLINK-1186","CLASSIFICATION_TYPE":"U","RA_OF_ASC_NODE":"233.8081","ECCENTRICITY":"0.00022900","LAUNCH_DATE":"2020-01-29","REV_AT_EPOCH":"10780","MEAN_MOTION_DOT":"0.00000402","OBJECT_TYPE":"PAYLOAD","MEAN_ELEMENT_THEORY":"SGP4","MEAN_MOTION_DDOT":"0.0000000000000","INCLINATION":"53.0552","CENTER_NAME":"EARTH","DECAY_DATE":null,"TLE_LINE2":"2 45099  53.0552 233.8081 0002290  59.5640 300.5575 15.06393450107803","NORAD_CAT_ID":"45099","PERIAPSIS":"545.648","MEAN_MOTION":"15.06393450","SITE":"AFETR","GP_ID":"193489646","SEMIMAJOR_AXIS":"6925.369","TIME_SYSTEM":"UTC","BSTAR":"0.00004594200000","TLE_LINE1":"1 45099U 20006BH  22008.87719479  .00000402  00000-0  45942-4 0  9993","COUNTRY_CODE":"US"},{"MEAN_MOTION_DOT":"-0.00000409","REV_AT_EPOCH":"10780","LAUNCH_DATE":"2020-01-29","ECCENTRICITY":"0.00022870","RA_OF_ASC_NODE":"233.6649","CLASSIFICATION_TYPE":"U","FILE":"3267514","OBJECT_NAME":"STARLINK-1193","ARG_OF_PERICENTER":"67.0448","OBJECT_ID":"2020-006BJ","RCS_SIZE":"LARGE","PERIOD":"95.592","REF_FRAME":"TEME","MEAN_ANOMALY":"293.0782","EPOCH":"2022-01-08T21:45:35.732448","ELEMENT_SET_NO":"999","EPHEMERIS_TYPE":"0","APOAPSIS":"548.797","COUNTRY_CODE":"US","TLE_LINE1":"1 45100U 20006BJ  22008.90666357 -.00000409  00000-0 -85548-5 0  9992","BSTAR":"-0.00000855480000","TIME_SYSTEM":"UTC","SEMIMAJOR_AXIS":"6925.348","GP_ID":"193488394","SITE":"AFETR","MEAN_MOTION":"15.06400102","PERIAPSIS":"545.629","NORAD_CAT_ID":"45100","TLE_LINE2":"2 45100  53.0550 233.6649 0002287  67.0448 293.0782 15.06400102107807","DECAY_DATE":null,"CENTER_NAME":"EARTH","MEAN_MOTION_DDOT":"0.0000000000000","INCLINATION":"53.0550","OBJECT_TYPE":"PAYLOAD","MEAN_ELEMENT_THEORY":"SGP4"},{"TLE_LINE2":"2 45101  53.0535 233.6857 0002136  70.1900 289.9319 15.06406322107803","NORAD_CAT_ID":"45101","PERIAPSIS":"545.715","MEAN_MOTION_DDOT":"0.0000000000000","INCLINATION":"53.0535","MEAN_ELEMENT_THEORY":"SGP4","OBJECT_TYPE":"PAYLOAD","DECAY_DATE":null,"CENTER_NAME":"EARTH","TIME_SYSTEM":"UTC","BSTAR":"0.00010051000000","TLE_LINE1":"1 45101U 20006BK  22008.90297916  .00001216  00000-0  10051-3 0  9994","COUNTRY_CODE":"US","MEAN_MOTION":"15.06406322","SEMIMAJOR_AXIS":"6925.329","SITE":"AFETR","GP_ID":"193488644","REF_FRAME":"TEME","PERIOD":"95.592","RCS_SIZE":"LARGE","ARG_OF_PERICENTER":"70.1900","OBJECT_ID":"2020-006BK","EPOCH":"2022-01-08T21:40:17.399424","APOAPSIS":"548.673","EPHEMERIS_TYPE":"0","ELEMENT_SET_NO":"999","MEAN_ANOMALY":"289.9319","LAUNCH_DATE":"2020-01-29","MEAN_MOTION_DOT":"0.00001216","REV_AT_EPOCH":"10780","FILE":"3267514","OBJECT_NAME":"STARLINK-1194","CLASSIFICATION_TYPE":"U","RA_OF_ASC_NODE":"233.6857","ECCENTRICITY":"0.00021360"}];
